STARLINK-5995           
1 56456U 23064J   26068.61417370 -.00001566  00000+0 -12353-3 0  9998
2 56456  70.0005 144.6943 0003054 267.8825  92.1984 14.98321135155237
HAWK-8A                 
1 59443U 24066B   26068.40724718  .00002325  00000+0  20899-3 0  9990
2 59443  45.5937  72.3645 0004214 254.4969 105.5447 14.98766556104869
